[
    {
        "Altitude(m)": 617719.7931523042,
        "Argument of Periapsis(deg)": 0.0,
        "Eccentricity": 0.0,
        "Inclination(deg)": 60.0,
        "Latitude(deg)": -41.102700230291966,
        "Longitude(deg)": -104.90540141223526,
        "Mean Anomaly(deg)": -130.90909999999997,
        "RAAN(deg)": 145.0,
        "Satellite Name": "Test1 652",
        "Satellite Number": 652,
        "Semi-Major Axis(m)": 6980739.136638005,
        "Time(s)": 0
    },
    {
        "Altitude(m)": 617911.3292855249,
        "Argument of Periapsis(deg)": 0.00010418945913296404,
        "Eccentricity": 0.0,
        "Inclination(deg)": 60.0,
        "Latitude(deg)": -41.56589268988741,
        "Longitude(deg)": -104.40099519183725,
        "Mean Anomaly(deg)": -130.28899385453818,
        "RAAN(deg)": 144.99957995086027,
        "Satellite Name": "Test1 652",
        "Satellite Number": 652,
        "Semi-Major Axis(m)": 6980739.136638005,
        "Time(s)": 10
    }
]